CCSDS_OMM_VERS = 2.0
CREATION_DATE  = 
ORIGINATOR     = 

OBJECT_NAME    = KUIPER-00270
OBJECT_ID      = 2026-030AD
CENTER_NAME    = EARTH
REF_FRAME      = TEME
TIME_SYSTEM    = UTC
MEAN_ELEMENT_THEORY = SGP/SGP4

EPOCH          = 2026-03-01T23:08:35.780064
MEAN_MOTION    = 15.34278308
ECCENTRICITY   = .00099462
INCLINATION    = 51.8794
RA_OF_ASC_NODE = 256.5356
ARG_OF_PERICENTER = 34.9520
MEAN_ANOMALY   = 325.2117

EPHEMERIS_TYPE = 0
CLASSIFICATION_TYPE = U
NORAD_CAT_ID   = 67791
ELEMENT_SET_NO = 999
REV_AT_EPOCH   = 390
BSTAR          = .71654409E-3
MEAN_MOTION_DOT = .2387E-3
MEAN_MOTION_DDOT = 0

CCSDS_OMM_VERS = 2.0
CREATION_DATE  = 
ORIGINATOR     = 

OBJECT_NAME    = KUIPER-00274
OBJECT_ID      = 2026-030AE
CENTER_NAME    = EARTH
REF_FRAME      = TEME
TIME_SYSTEM    = UTC
MEAN_ELEMENT_THEORY = SGP/SGP4

EPOCH          = 2026-03-01T22:03:03.138912
MEAN_MOTION    = 15.31694752
ECCENTRICITY   = .00171923
INCLINATION    = 51.8823
RA_OF_ASC_NODE = 256.9793
ARG_OF_PERICENTER = 47.3567
MEAN_ANOMALY   = 312.8864

EPHEMERIS_TYPE = 0
CLASSIFICATION_TYPE = U
NORAD_CAT_ID   = 67792
ELEMENT_SET_NO = 999
REV_AT_EPOCH   = 389
BSTAR          = .69123948E-3
MEAN_MOTION_DOT = .21248E-3
MEAN_MOTION_DDOT = 0

CCSDS_OMM_VERS = 2.0
CREATION_DATE  = 
ORIGINATOR     = 

OBJECT_NAME    = KUIPER-00275
OBJECT_ID      = 2026-030AF
CENTER_NAME    = EARTH
REF_FRAME      = TEME
TIME_SYSTEM    = UTC
MEAN_ELEMENT_THEORY = SGP/SGP4

EPOCH          = 2026-03-01T21:31:16.722912
MEAN_MOTION    = 15.34348630
ECCENTRICITY   = .00087019
INCLINATION    = 51.8826
RA_OF_ASC_NODE = 256.8411
ARG_OF_PERICENTER = 32.1611
MEAN_ANOMALY   = 327.9904

EPHEMERIS_TYPE = 0
CLASSIFICATION_TYPE = U
NORAD_CAT_ID   = 67793
ELEMENT_SET_NO = 999
REV_AT_EPOCH   = 389
BSTAR          = .71923089E-3
MEAN_MOTION_DOT = .24007E-3
MEAN_MOTION_DDOT = 0

CCSDS_OMM_VERS = 2.0
CREATION_DATE  = 
ORIGINATOR     = 

OBJECT_NAME    = KUIPER-00276
OBJECT_ID      = 2026-030AG
CENTER_NAME    = EARTH
REF_FRAME      = TEME
TIME_SYSTEM    = UTC
MEAN_ELEMENT_THEORY = SGP/SGP4

EPOCH          = 2026-03-01T22:08:22.982208
MEAN_MOTION    = 15.31497197
ECCENTRICITY   = .00182154
INCLINATION    = 51.8821
RA_OF_ASC_NODE = 257.0018
ARG_OF_PERICENTER = 42.8473
MEAN_ANOMALY   = 317.3927

EPHEMERIS_TYPE = 0
CLASSIFICATION_TYPE = U
NORAD_CAT_ID   = 67794
ELEMENT_SET_NO = 999
REV_AT_EPOCH   = 389
BSTAR          = .54046534E-3
MEAN_MOTION_DOT = .16426E-3
MEAN_MOTION_DDOT = 0

CCSDS_OMM_VERS = 2.0
CREATION_DATE  = 
ORIGINATOR     = 

OBJECT_NAME    = KUIPER-00279
OBJECT_ID      = 2026-030AH
CENTER_NAME    = EARTH
REF_FRAME      = TEME
TIME_SYSTEM    = UTC
MEAN_ELEMENT_THEORY = SGP/SGP4

EPOCH          = 2026-03-01T22:57:27.802656
MEAN_MOTION    = 15.34999242
ECCENTRICITY   = .0006106
INCLINATION    = 51.8785
RA_OF_ASC_NODE = 256.4843
ARG_OF_PERICENTER = 28.1591
MEAN_ANOMALY   = 331.9723

EPHEMERIS_TYPE = 0
CLASSIFICATION_TYPE = U
NORAD_CAT_ID   = 67795
ELEMENT_SET_NO = 999
REV_AT_EPOCH   = 390
BSTAR          = .76666308E-3
MEAN_MOTION_DOT = .2615E-3
MEAN_MOTION_DDOT = 0

CCSDS_OMM_VERS = 2.0
CREATION_DATE  = 
ORIGINATOR     = 

OBJECT_NAME    = CREW DRAGON 12
OBJECT_ID      = 2026-031A
CENTER_NAME    = EARTH
REF_FRAME      = TEME
TIME_SYSTEM    = UTC
MEAN_ELEMENT_THEORY = SGP/SGP4

EPOCH          = 2026-03-01T20:00:02.826720
MEAN_MOTION    = 15.48387794
ECCENTRICITY   = .00082842
INCLINATION    = 51.6319
RA_OF_ASC_NODE = 111.1961
ARG_OF_PERICENTER = 147.0223
MEAN_ANOMALY   = 213.1284

EPHEMERIS_TYPE = 0
CLASSIFICATION_TYPE = U
NORAD_CAT_ID   = 67796
ELEMENT_SET_NO = 999
REV_AT_EPOCH   = 55485
BSTAR          = .19089077E-3
MEAN_MOTION_DOT = .9867E-4
MEAN_MOTION_DDOT = 0

CCSDS_OMM_VERS = 2.0
CREATION_DATE  = 
ORIGINATOR     = 

OBJECT_NAME    = STARLINK-36800
OBJECT_ID      = 2026-032A
CENTER_NAME    = EARTH
REF_FRAME      = TEME
TIME_SYSTEM    = UTC
MEAN_ELEMENT_THEORY = SGP/SGP4

EPOCH          = 2026-03-01T22:38:08.622240
MEAN_MOTION    = 15.75276381
ECCENTRICITY   = .00014278
INCLINATION    = 97.2848
RA_OF_ASC_NODE = 247.0434
ARG_OF_PERICENTER = 72.1008
MEAN_ANOMALY   = 288.0413

EPHEMERIS_TYPE = 0
CLASSIFICATION_TYPE = U
NORAD_CAT_ID   = 67797
ELEMENT_SET_NO = 999
REV_AT_EPOCH   = 356
BSTAR          = .16022956E-2
MEAN_MOTION_DOT = .24682E-2
MEAN_MOTION_DDOT = 0

CCSDS_OMM_VERS = 2.0
CREATION_DATE  = 
ORIGINATOR     = 

OBJECT_NAME    = STARLINK-36798
OBJECT_ID      = 2026-032B
CENTER_NAME    = EARTH
REF_FRAME      = TEME
TIME_SYSTEM    = UTC
MEAN_ELEMENT_THEORY = SGP/SGP4

EPOCH          = 2026-03-01T22:26:22.628832
MEAN_MOTION    = 15.80955542
ECCENTRICITY   = .00015779
INCLINATION    = 97.2845
RA_OF_ASC_NODE = 247.0546
ARG_OF_PERICENTER = 47.9677
MEAN_ANOMALY   = 312.1726

EPHEMERIS_TYPE = 0
CLASSIFICATION_TYPE = U
NORAD_CAT_ID   = 67798
ELEMENT_SET_NO = 999
REV_AT_EPOCH   = 356
BSTAR          = .16172521E-2
MEAN_MOTION_DOT = .323458E-2
MEAN_MOTION_DDOT = 0

CCSDS_OMM_VERS = 2.0
CREATION_DATE  = 
ORIGINATOR     = 

OBJECT_NAME    = STARLINK-36804
OBJECT_ID      = 2026-032C
CENTER_NAME    = EARTH
REF_FRAME      = TEME
TIME_SYSTEM    = UTC
MEAN_ELEMENT_THEORY = SGP/SGP4

EPOCH          = 2026-03-01T22:35:36.369888
MEAN_MOTION    = 15.75225712
ECCENTRICITY   = .00014567
INCLINATION    = 97.2848
RA_OF_ASC_NODE = 247.0461
ARG_OF_PERICENTER = 76.1053
MEAN_ANOMALY   = 284.0374

EPHEMERIS_TYPE = 0
CLASSIFICATION_TYPE = U
NORAD_CAT_ID   = 67799
ELEMENT_SET_NO = 999
REV_AT_EPOCH   = 356
BSTAR          = .12728993E-2
MEAN_MOTION_DOT = .194416E-2
MEAN_MOTION_DDOT = 0

CCSDS_OMM_VERS = 2.0
CREATION_DATE  = 
ORIGINATOR     = 

OBJECT_NAME    = STARLINK-36354
OBJECT_ID      = 2026-032D
CENTER_NAME    = EARTH
REF_FRAME      = TEME
TIME_SYSTEM    = UTC
MEAN_ELEMENT_THEORY = SGP/SGP4

EPOCH          = 2026-03-01T19:21:13.611456
MEAN_MOTION    = 15.80821940
ECCENTRICITY   = .00019999
INCLINATION    = 97.2849
RA_OF_ASC_NODE = 246.9246
ARG_OF_PERICENTER = 82.9625
MEAN_ANOMALY   = 277.1870

EPHEMERIS_TYPE = 0
CLASSIFICATION_TYPE = U
NORAD_CAT_ID   = 67800
ELEMENT_SET_NO = 999
REV_AT_EPOCH   = 354
BSTAR          = .19912452E-3
MEAN_MOTION_DOT = .3818E-3
MEAN_MOTION_DDOT = 0

CCSDS_OMM_VERS = 2.0
CREATION_DATE  = 
ORIGINATOR     = 

OBJECT_NAME    = STARLINK-36773
OBJECT_ID      = 2026-032E
CENTER_NAME    = EARTH
REF_FRAME      = TEME
TIME_SYSTEM    = UTC
MEAN_ELEMENT_THEORY = SGP/SGP4

EPOCH          = 2026-03-01T22:31:01.861536
MEAN_MOTION    = 15.75246062
ECCENTRICITY   = .00017008
INCLINATION    = 97.2850
RA_OF_ASC_NODE = 247.0499
ARG_OF_PERICENTER = 73.5583
MEAN_ANOMALY   = 286.5869

EPHEMERIS_TYPE = 0
CLASSIFICATION_TYPE = U
NORAD_CAT_ID   = 67801
ELEMENT_SET_NO = 999
REV_AT_EPOCH   = 356
BSTAR          = .11167217E-2
MEAN_MOTION_DOT = .170212E-2
MEAN_MOTION_DDOT = 0

CCSDS_OMM_VERS = 2.0
CREATION_DATE  = 
ORIGINATOR     = 

OBJECT_NAME    = STARLINK-36739
OBJECT_ID      = 2026-032F
CENTER_NAME    = EARTH
REF_FRAME      = TEME
TIME_SYSTEM    = UTC
MEAN_ELEMENT_THEORY = SGP/SGP4

EPOCH          = 2026-03-01T19:17:13.737408
MEAN_MOTION    = 15.80901544
ECCENTRICITY   = .0002051
INCLINATION    = 97.2841
RA_OF_ASC_NODE = 246.9268
ARG_OF_PERICENTER = 54.2087
MEAN_ANOMALY   = 305.9371

EPHEMERIS_TYPE = 0
CLASSIFICATION_TYPE = U
NORAD_CAT_ID   = 67802
ELEMENT_SET_NO = 999
REV_AT_EPOCH   = 354
BSTAR          = .13076906E-2
MEAN_MOTION_DOT = .258934E-2
MEAN_MOTION_DDOT = 0

CCSDS_OMM_VERS = 2.0
CREATION_DATE  = 
ORIGINATOR     = 

OBJECT_NAME    = STARLINK-36768
OBJECT_ID      = 2026-032G
CENTER_NAME    = EARTH
REF_FRAME      = TEME
TIME_SYSTEM    = UTC
MEAN_ELEMENT_THEORY = SGP/SGP4

EPOCH          = 2026-03-01T22:22:38.582400
MEAN_MOTION    = 15.77223327
ECCENTRICITY   = .0000959
INCLINATION    = 97.2844
RA_OF_ASC_NODE = 247.0576
ARG_OF_PERICENTER = 53.9054
MEAN_ANOMALY   = 306.2301

EPHEMERIS_TYPE = 0
CLASSIFICATION_TYPE = U
NORAD_CAT_ID   = 67803
ELEMENT_SET_NO = 999
REV_AT_EPOCH   = 356
BSTAR          = -.4710466E-2
MEAN_MOTION_DOT = -.707877E-2
MEAN_MOTION_DDOT = 0

CCSDS_OMM_VERS = 2.0
CREATION_DATE  = 
ORIGINATOR     = 

OBJECT_NAME    = STARLINK-36792
OBJECT_ID      = 2026-032H
CENTER_NAME    = EARTH
REF_FRAME      = TEME
TIME_SYSTEM    = UTC
MEAN_ELEMENT_THEORY = SGP/SGP4

EPOCH          = 2026-03-01T22:25:57.131328
MEAN_MOTION    = 15.75283200
ECCENTRICITY   = .00019554
INCLINATION    = 97.2843
RA_OF_ASC_NODE = 247.0539
ARG_OF_PERICENTER = 55.2747
MEAN_ANOMALY   = 304.8702

EPHEMERIS_TYPE = 0
CLASSIFICATION_TYPE = U
NORAD_CAT_ID   = 67804
ELEMENT_SET_NO = 999
REV_AT_EPOCH   = 356
BSTAR          = .13523383E-2
MEAN_MOTION_DOT = .207393E-2
MEAN_MOTION_DDOT = 0

CCSDS_OMM_VERS = 2.0
CREATION_DATE  = 
ORIGINATOR     = 

OBJECT_NAME    = STARLINK-36782
OBJECT_ID      = 2026-032J
CENTER_NAME    = EARTH
REF_FRAME      = TEME
TIME_SYSTEM    = UTC
MEAN_ELEMENT_THEORY = SGP/SGP4

EPOCH          = 2026-03-01T20:45:53.564256
MEAN_MOTION    = 15.80927509
ECCENTRICITY   = .00014015
INCLINATION    = 97.2837
RA_OF_ASC_NODE = 246.9957
ARG_OF_PERICENTER = 88.9774
MEAN_ANOMALY   = 271.1654

EPHEMERIS_TYPE = 0
CLASSIFICATION_TYPE = U
NORAD_CAT_ID   = 67805
ELEMENT_SET_NO = 999
REV_AT_EPOCH   = 355
BSTAR          = .13792418E-2
MEAN_MOTION_DOT = .273903E-2
MEAN_MOTION_DDOT = 0

